OCO 2                   
1 40059U 14035A   26115.89738791  .00000440  00000+0  10751-3 0  9992
2 40059  98.1988  57.9976 0001610  79.8767 280.2613 14.57145318628432
BRITE-PL2 (HEWELIUSZ)   
1 40119U 14049B   26115.88146838  .00001689  00000+0  16222-3 0  9993
2 40119  97.9035 227.5041 0012693 284.5467  75.4344 14.94395237633633
MMS 1                   
1 40482U 15011A   26116.00003472 -.00000700  00000+0  00000+0 0  9994
2 40482  71.4226 349.4850 8365409 166.4039  14.7519  0.28219139  1350
MMS 2                   
1 40483U 15011B   26116.00003472 -.00000701  00000+0  00000+0 0  9996
2 40483  71.4227 349.4872 8366173 166.4098  14.7376  0.28218983  1357
MMS 3                   
1 40484U 15011C   26116.00003472 -.00000700  00000+0  00000+0 0  9996
2 40484  71.4255 349.4918 8365405 166.4041  14.7398  0.28218950  1353
MMS 4                   
1 40485U 15011D   26116.00003472 -.00000701  00000+0  00000+0 0  9998
2 40485  71.4226 349.4872 8364966 166.4118  14.7271  0.28218770  1357
ASTROSAT                
1 40930U 15052A   26112.31982605  .00001425  00000+0  92060-4 0  9997
2 40930   5.9962 197.4550 0008405 315.1790  44.7659 14.82404932571525
DAMPE                   
1 41173U 15078A   26116.00231918  .00001204  00000+0  43240-4 0  9990
2 41173  97.4580 121.2164 0010241 261.1779  98.8302 15.30649769576568
PISAT                   
1 41784U 16059B   26115.96591075  .00001091  00000+0  19349-3 0  9991
2 41784  97.8190 118.6664 0029431  15.4360 344.7737 14.68885946512079
HXMT (HUIYAN)           
1 42758U 17034A   26115.96333385  .00003759  00000+0  19099-3 0  9990
2 42758  43.0132 113.7281 0031430 176.5103 183.5970 15.17992010489726
FLYING LAPTOP           
1 42831U 17042G   26115.91973495  .00002783  00000+0  22296-3 0  9997
2 42831  97.4455 273.5510 0018221 303.8617  56.0873 15.00808440478614
ZHANGHENG 1-01 (CSES-1) 
1 43194U 18015C   26115.96270275  .00008796  00000+0  40217-3 0  9995
2 43194  97.6829 280.5955 0017955  86.2973 274.0315 15.20653261456705
SALSAT                  
1 46495U 20068K   26115.93492936  .00009598  00000+0  34294-3 0  9999
2 46495  97.8865 115.8517 0011523 121.2153 239.0216 15.29005761307377
IXPE                    
1 49954U 21121A   26115.91668981  .00018735  00000+0  10685-2 0  9996
2 49954   0.2305 352.5551 0007151  10.4929 132.2524 15.09747316  5533
